1 44235U 19029A   20275.31341942  .09808971  12623-4  18159-3 0  9999
2 44235  52.9736  36.3928 0009041 295.9879 160.3065 16.46847225 76971
1 44745U 19074AJ  20246.77485442  .21998659  12712-4  15628-3 0  9991
2 44745  52.9611 104.7789 0006885 265.0997  95.3587 16.52708336 47077
1 44916U 20001C   21347.61967235  .14773439  12246-4  20091-2 0  9994
2 44916  53.0279  26.7174 0004565  62.4092  78.6684 16.34493433107571
1 45056U 20006N   20340.11875573 +.10864156 +12006-4 +21678-2 0  9994
2 45056 052.9843 245.5314 0008198 221.5877 138.4542 16.30609258047306
1 45211U 20012AK  20069.91667824  .00723224  00000-0  41594-2 0  9993
2 45211  53.0024 162.4808 0027451 118.7601 331.9927 15.75746283  3703
1 45419U 20019BM  22290.49399804 -.00000859  00000-0 -38801-4 0  9994
2 45419  53.0544 329.5954 0001424  60.5432 299.5699 15.06397117142695
1 45532U 20025B   22290.20834568 -.00000007  00000-0  18412-4 0  9997
2 45532  53.0550 270.8780 0001619  56.8726 303.2418 15.06392907137691
1 45674U 20035T   22290.24889109 -.00001448  00000-0 -78311-4 0  9995
2 45674  53.0543 230.6836 0001491  85.7166 274.3994 15.06395666131891
1 45730U 20038A   22290.53915343 -.00000276  00000-0  37846-6 0  9990
2 45730  53.0542  39.3864 0001465  62.4318 297.6820 15.06394784129433
1 46028U 20055B   22290.28391207 -.00000756  00000-0 -31830-4 0  9998
2 46028  53.0546 290.5172 0001858  44.5637 315.5501 15.06395974122095
1 46117U 20057A   22290.25718398 -.00000694  00000-0 -27737-4 0  9992
2 46117  53.0564 100.6466 0001256 101.1222 258.9909 15.06392388119536
1 46373U 20062BA  21229.46356932  .57479253  12924-4  48391-3 0  9999
2 46373  53.0406 233.4740 0024998  41.4098  81.2348 16.49810577 54311
1 46532U 20070A   22290.52255797 -.00008118  00000-0 -52645-3 0  9991
2 46532  53.0561 339.4600 0001972  39.2823 320.8309 15.06415817112752
1 46670U 20073A   20298.85060006  .10787455  12210-4  26642-2 0  9990
2 46670  53.0515  77.8706 0011864 337.4012  22.6738 16.28223676  2260
1 46781U 20074AU  22290.02450629 -.00000075  00000-0  13855-4 0  9991
2 46781  53.0536 126.7026 0001322 113.1576 246.9552 15.06398302109837
1 47123U 20088B   21238.19244072  .17986568  12169-4  24444-2 0  9993
2 47123  53.0409 140.3793 0010161 257.4889 103.0154 16.34338817 42991
1 47364U 21005R   21347.96259270  .36586140  12459-4  20712-2 0  9991
2 47364  53.0308 144.7394 0005826 297.7694  62.5930 16.41953257 50195
1 47422U 21006K   22023.60087801  .16250996  25267-5  18169-2 0  9999
2 47422  97.4741  92.9009 0008646 288.1215  71.9269 16.37083573 55785
1 47584U 21009AN  22029.39727573  .40378414  12551-4  14464-2 0  9998
2 47584  53.0303 162.4526 0004802 355.4077 114.0983 16.44164711 56861
1 47622U 21012C   22290.55157531  .00001853  00000-0  14325-3 0  9999
2 47622  53.0545 234.3267 0001384  63.3985 296.7145 15.06397555 93217
1 47727U 21017F   22290.45482191  .00001733  00000-0  13524-3 0  9999
2 47727  53.0533 284.7738 0001985  46.3735 313.7419 15.06395273 92233
1 47843U 21018BJ  22290.53730831  .00000690  00000-0  65197-4 0  9990
2 47843  53.0563  59.4022 0001184  74.1069 286.0051 15.06394327 89776
1 47860U 21021A   22290.42258075  .00001719  00000-0  13430-3 0  9991
2 47860  53.0541  84.8938 0001324  98.7403 261.3736 15.06397311 89164
1 48014U 21024AP  22290.52165611  .00001905  00000-0  14674-3 0  9998
2 48014  53.0555  69.6264 0001264  67.7248 292.3875 15.06403930 88768
1 48109U 21027T   22290.49907613  .00000801  00000-0  72667-4 0  9999
2 48109  53.0554 334.5665 0001704  50.6930 309.4210 15.06384682 85648
1 48324U 21036BA  22290.34238844 -.00000511  00000-0 -15396-4 0  9991
2 48324  53.0565 265.2493 0001548  87.6958 272.4208 15.06409387 81220
1 48394U 21038AT  22290.00422349  .00000648  00000-0  62392-4 0  9995
2 48394  53.0511 146.7927 0001248 100.9006 259.2124 15.06394408 81679
1 48485U 21040BK  22290.53317118  .00001971  00000-0  15114-3 0  9993
2 48485  53.0569   4.4181 0002039  55.5566 304.5615 15.06421743 80851
1 48594U 21041AT  22290.38665559 -.00000534  00000-0 -16974-4 0  9995
2 48594  53.0541 275.1594 0001800  58.6877 301.4288 15.06396005 78694
1 48680U 21044AU  22290.36452545 -.00000154  00000-0  85473-5 0  9999
2 48680  53.0530 275.1766 0001902  50.5062 309.6094 15.06401256 77058
1 48880U 21059B   22290.58334491  .00002224  00000-0  17022-3 0  9992
2 48880  97.5157  57.4915 0001601  62.8934   2.8814 15.02882552  1300
1 49154U 21082AA  22290.12865518 -.00000502  00000-0 -34283-4 0  9990
2 49154  69.9997 159.8198 0003883 241.0156 119.0614 14.98333258 61876
1 49429U 21104X   21335.00000000  .03908231  12240-4  37312-3 0  9998
2 49429  53.2103  42.9832 0026157 101.5790 123.6431 16.36366297  4076
1 49755U 21115AH  22290.44482490  .00000322  00000-0  38354-4 0  9994
2 49755  53.2158 312.3218 0001921  45.8215 314.2935 15.08836272 48454
1 50159U 21125D   22290.54141830 -.00000935  00000-0 -40659-4 0  9999
2 50159  53.2162  61.8703 0002044  35.6247 324.4881 15.08830066 49384
1 50820U 22001T   22290.53131105  .00004092  00000-0  27511-3 0  9998
2 50820  53.2163 331.9326 0002428  31.2106 328.9030 15.08833579 43330
1 51125U 22005X   22290.19918683 -.00000017  00000-0  17063-4 0  9993
2 51125  53.2173 103.4232 0002055  44.3041 315.8115 15.08830992 41600
1 51470U 22010Q   22043.65749367  .08378202  12224-4  26598-3 0  9998
2 51470  53.2035 127.3150 0014994 203.4139 311.6420 16.43396970  2237
1 51736U 22016Y   22290.55797146  .00001060  00000-0  84685-4 0  9994
2 51736  53.2165 121.7914 0001724  49.6625 310.4517 15.08839941 36498
1 51801U 22017AK  22290.33441437  .00000147  00000-0  27356-4 0  9990
2 51801  53.2171 152.7931 0001506  61.5995 298.5149 15.08848549 36820
1 51883U 22022AH  22290.34916849 -.00000601  00000-0 -19640-4 0  9995
2 51883  53.2157 162.7441 0001688  51.5997 308.5146 15.08842021 36146
1 51996U 22025AS  22290.44204059 -.00000522  00000-0 -14709-4 0  9990
2 51996  53.2162 182.3280 0001438  66.5715 293.5428 15.08847023 33839
1 52128U 22029AS  22106.71908400  .81851771  12439-4  53839-3 0  9995
2 52128  53.1843 358.8528 0020170 151.6763 312.2835 16.52125706  5804
1 52284U 22041Z   22290.35742470 -.00001918  00000-0 -10244-3 0  9992
2 52284  53.2170 262.6880 0002190  36.1206 323.9934 15.08827030 27403
1 52353U 22045Y   22290.47333805 -.00001992  00000-0 -10704-3 0  9997
2 52353  53.2175   2.1913 0002786  26.5425 333.5710 15.08840900 28700
1 52470U 22049V   22290.22492284 -.00000465  00000-0 -11101-4 0  9998
2 52470  53.2181 223.2947 0001391  55.9319 304.1805 15.08849787 25134
1 52535U 22051C   22290.02714630 -.00002070  00000-0 -11199-3 0  9993
2 52535  53.2187 294.1925 0001854  42.8141 317.2995 15.08830166 24299
1 52644U 22052AY  22290.51565367 -.00000694  00000-0 -25467-4 0  9994
2 52644  53.2183  61.9848 0002188  33.6946 326.4185 15.08844106 24058
1 52693U 22053AP  22290.48391854 -.00000514  00000-0 -14182-4 0  9996
2 52693  53.2186 307.1313 0002056  39.8675 320.2468 15.08839875 24073
1 52874U 22062AW  22290.58334491  .00058589  00000-0  36711-2 0  9995
2 52874  53.2145 176.6803 0001500  57.3647 138.0484 15.08818520  1307
1 53007U 22076X   22290.58334491 -.00012919  00000-0 -79474-3 0  9992
2 53007  53.2158 256.6703 0001606  58.1624  37.3141 15.08853277  1308
1 53086U 22077AV  22290.51596229 -.00002085  00000-0 -15770-3 0  9994
2 53086  97.6567 110.0791 0002563  34.8942 325.2450 15.01284712 15007
1 53139U 22083H   22290.58334491  .00018344  00000-0  11680-2 0  9996
2 53139  53.2164 336.6965 0002626  24.8767  30.6254 15.08827887  1300
1 53198U 22084K   22290.43759081  .00010900  00000-0  85180-3 0  9999
2 53198  97.6550 349.9710 0001751  98.2805 261.8618 15.01262788 14040
1 53272U 22086AG  22290.58334491 -.01061440  00000-0 -53842-1 0  9990
2 53272  53.2174 346.9096 0001642  40.5400 348.8657 15.19566018  1303
1 53389U 22097B   22290.58334491 -.00003264  00000-0 -18691-3 0  9995
2 53389  53.2165 286.6906 0002419  37.6224  72.7875 15.08861176  1302
1 53491U 22099AC  22290.58334491  .00016213  00000-0  12640-2 0  9994
2 53491  97.6577  50.1365 0002811  24.0279 141.6631 15.01256260  1305
1 53578U 22101BD  22290.58334491  .00084130  00000-0  59797-3 0  9992
2 53578  53.2126 223.7438 0002903  17.1061 299.2303 15.73192630  1307
1 53612U 22104AA  22290.58334491 -.01061447  00000-0 -20990-1 0  9994
2 53612  53.2174  39.2823 0001598  38.0706   9.1952 15.49357093  1301
1 53689U 22105AT  22290.58334491 -.00201770  00000-0 -16101-1 0  9992
2 53689  97.6556 170.1289 0002130 131.5680 210.7091 15.01390738  1300
1 53725U 22107AB  22290.51145832  .00253292  39490-4  38988-3 0  9999
2 53725  53.2069  57.1464 0009953   2.3214 357.7864 16.03724673  6863
1 53786U 22111P   22290.58334491  .00050080  00000-0  35871-3 0  9998
2 53786  53.2162  86.3504 0000896  90.1769  18.9547 15.73226426  5682
1 53856U 22114AQ  22290.58334491  .00047251  00000-0  33886-3 0  9999
2 53856  53.2163 117.5157 0001131 105.8413 324.5356 15.73223130  5060
1 53915U 22119AF  22290.58334491 -.00022269  00000-0 -15436-3 0  9995
2 53915  53.2159 141.0487 0001194 110.2380 101.8194 15.73246955  1300
1 54013U 22125BB  22290.58334491  .00161511  00000-0  11379-2 0  9995
2 54013  53.2180  34.0518 0002348  37.3396  10.8361 15.73102029  1306